C/2014 R3 (PANSTARRS),e,90.9224,334.0951,113.4449,13212,0.0000006,0.99944945,0.0000,08/08.9186/2016,2000,g  6.5,4.0
# From MPC 91615
P/2014 R5 (Lemmon-PANSTARRS),e,1.0883,126.5576,213.7263,4.056427,0.1206392,0.41360297,292.1973,02/03.0/2021,2000,g 15.0,4.0
# From MPC104790
C/2014 S2 (PANSTARRS),e,64.5211,8.1582,87.2938,169.5990,0.0004462,0.98773652,0.0000,12/09.1067/2015,2000,g 10.0,4.0
# From MPC 91616
P/2014 U4 (PANSTARRS),e,6.4291,11.8906,347.7372,3.506485,0.1501053,0.46496237,358.4234,02/03.0/2021,2000,g 18.0,4.0
# From MPC 95211
P/2014 V1 (PANSTARRS),e,22.5181,166.2012,177.5712,5.481221,0.0768048,0.53421709,169.1678,02/03.0/2021,2000,g 14.0,4.0
# From MPC 93586
P/2014 W1 (PANSTARRS),e,8.8382,246.2456,152.2385,4.461795,0.1045778,0.38869069,250.1683,02/03.0/2021,2000,g 15.5,4.0
# From MPC110493
C/2014 W2 (PANSTARRS),e,82.0686,69.9869,84.9375,560.6464,0.0000742,0.99523022,0.0000,03/07.8865/2016,2000,g  7.5,4.0
# From MPEC 2021-BE3
C/2014 W2 (PANSTARRS),e,82.0686,69.9869,84.9375,560.7294,0.0000742,0.99523093,0.0000,03/07.8864/2016,2000,g  7.5,4.0
# From MPC105542
P/2014 W4 (PANSTARRS),e,15.2727,33.3562,67.8387,6.598741,0.0581450,0.35206991,108.2677,02/03.0/2021,2000,g 11.0,4.0
# From MPEC 2021-BE3
C/2014 W8 (PANSTARRS),e,41.9333,224.7901,228.1297,177.5532,0.0004166,0.97180499,0.0000,09/09.4261/2015,2000,g 11.0,4.0
# From MPC115880
C/2014 W10 (PANSTARRS),e,82.8839,43.1007,43.6494,809.9487,0.0000428,0.99064902,0.0000,03/04.2622/2016,2000,g  8.0,4.0
# From MPC 93587
P/2014 W12 (Gibbs),e,8.5140,299.2902,36.8910,3.519345,0.1492833,0.52419106,339.6543,02/03.0/2021,2000,g 15.0,4.0
# From MPC 94281
P/2014 X1 (Elenin),e,26.0049,61.5075,33.9716,6.209686,0.0636942,0.70854415,141.7313,02/03.0/2021,2000,g 15.0,4.0
# From MPC100579
C/2014 Y1 (PANSTARRS),h,01/15.8678/2016,14.9063,19.5697,182.3199,1.001370,2.254198,2000,9.5,4.0
# From MPEC 2021-BE3
C/2015 A2 (PANSTARRS),h,08/30.6846/2015,108.8182,258.4932,212.5905,1.004097,5.247732,2000,10.5,4.0
# From MPEC 2021-BE3
P/2015 A3 (PANSTARRS),e,172.5220,277.1724,249.6058,7.431424,0.0486515,0.84412634,105.9065,02/03.0/2021,2000,g 20.0,4.0
# From MPC 99270
P/2015 B1 (PANSTARRS),e,18.0315,353.0112,188.8497,9.499294,0.0336641,0.36829310,66.2434,02/03.0/2021,2000,g  8.5,4.0
# From MPC108592
C/2015 B2 (PANSTARRS),e,104.9908,341.8486,284.7194,19097,0.0000004,0.99982348,0.0000,05/05.4110/2016,2000,g  9.5,4.0
# From MPC109141
P/2015 B4 (Lemmon-PANSTARRS),e,1.7599,266.0249,227.4699,8.531970,0.0395485,0.56023068,86.6410,02/03.0/2021,2000,g 11.0,4.0
# From MPC101096
P/2015 C1 (TOTAS-Gibbs),e,13.8919,348.8196,178.3194,6.584766,0.0583302,0.56026134,122.9952,02/03.0/2021,2000,g 12.5,4.0
# From MPC119995
C/2015 D3 (PANSTARRS),h,05/02.4682/2016,128.5488,157.0606,2.9554,1.003613,8.143988,2000,5.5,4.0
# From MPC109141
P/2015 D5 (Kowalski),e,20.5006,74.0599,39.8873,8.970840,0.0366821,0.48881507,91.7227,02/03.0/2021,2000,g  9.0,4.0
# From MPC 96866
P/2015 D6 (Lemmon-PANSTARRS),e,20.2020,46.0212,125.1839,7.145256,0.0516033,0.36191111,105.3504,02/03.0/2021,2000,g 10.5,4.0
# From MPC112390
C/2015 ER61 (PANSTARRS),e,6.3376,235.1525,68.3160,496.1270,0.0000892,0.99789725,0.0000,05/10.4770/2017,2000,g 11.0,2.0
# From MPEC 2018-BF5
C/2015 E61-B (PANSTARRS),e,6.3392,235.1876,68.4052,1411,0.0000186,0.99925937,0.0000,05/10.4547/2017,2000,g 13.5,2.0
# From MPC109142
P/2015 F1 (PANSTARRS),e,2.8025,40.3912,187.4642,3.522814,0.1490629,0.27803387,320.2663,02/03.0/2021,2000,g 12.5,4.0
# From MPC117068
C/2015 H2 (PANSTARRS),h,09/14.2351/2016,33.6536,350.6775,288.1029,1.005663,4.978570,2000,7.5,4.0
# From MPC100280
P/2015 HG16 (PANSTARRS),e,18.7969,58.8137,47.4174,4.748415,0.0952535,0.35132126,230.2263,02/03.0/2021,2000,g 12.5,4.0
# From MPEC 2021-BE3
P/2015 J3 (NEOWISE),e,8.1309,111.3511,129.4542,3.348002,0.1608887,0.55435282,347.4236,02/03.0/2021,2000,g 16.5,4.0
# From MPC 95213
P/2015 K5 (PANSTARRS),e,39.9449,134.1755,106.3386,6.720800,0.0565682,0.55346187,117.0684,02/03.0/2021,2000,g 13.5,4.0
# From MPC107684
P/2015 M2 (PANSTARRS),e,3.9727,86.5834,225.4579,7.229087,0.0507083,0.18104799,100.0677,02/03.0/2021,2000,g  8.5,4.0
# From MPC112390
C/2015 O1 (PANSTARRS),h,02/19.6324/2018,127.2254,299.8516,89.6300,1.001130,3.729189,2000,6.5,4.0
# From MPC 99819
P/2015 P4 (PANSTARRS),e,8.7177,104.7597,280.5690,6.049506,0.0662406,0.58466411,121.9555,02/03.0/2021,2000,g 14.0,4.0
# From MPC102952
P/2015 PD229 (Cameron-ISON),e,2.0263,342.6328,352.4471,7.182400,0.0512035,0.32816695,102.3135,02/03.0/2021,2000,g 11.5,2.0
# From MPC 99819
P/2015 Q1 (Scotti),e,22.3829,202.9124,199.8387,3.473968,0.1522178,0.47826343,302.8248,02/03.0/2021,2000,g 14.0,4.0
# From MPC 96867
P/2015 Q2 (Pimentel),e,146.4950,228.4190,244.4869,7.347851,0.0494839,0.75082772,97.8376,02/03.0/2021,2000,g 15.5,4.0
# From MPC 98562
P/2015 R1 (PANSTARRS),e,22.6791,48.4293,300.4287,5.880393,0.0691185,0.63411446,141.4786,02/03.0/2021,2000,g 14.0,4.0
# From MPC 95734
P/2015 R2 (PANSTARRS),e,15.4799,168.5998,149.7571,4.488355,0.1036510,0.45285954,213.7884,02/03.0/2021,2000,g 14.5,4.0
# From MPC117068
C/2015 T2 (PANSTARRS),e,124.5517,51.0259,30.6555,1961,0.0000113,0.99646398,0.0000,05/18.3986/2017,2000,g  8.0,4.0
# From MPC 96280
P/2015 T3 (PANSTARRS),e,13.0937,120.5019,178.6330,4.326181,0.1095335,0.50818108,359.9227,12/21.0/2014,2000,g 14.0,4.0
# From MPC102953
C/2015 T4 (PANSTARRS),e,87.9971,251.8294,270.0716,79.72957,0.0013844,0.97115619,0.0000,06/16.8199/2016,2000,g 11.0,4.0
# From MPC102097
C/2015 T5 (Sheppard-Tholen),e,11.0503,311.0704,61.8551,28.17385,0.0065907,0.66873042,12.1079,02/03.0/2021,2000,g  7.5,4.0
# From MPC102953
P/2015 TO19 (Lemmon-PANSTARRS),e,6.4995,321.6517,89.1284,4.556037,0.1013499,0.35813137,182.0014,02/03.0/2021,2000,g 14.0,4.0
# From MPC110080
P/2015 TP200 (LINEAR),e,8.7772,6.9976,82.6119,7.275302,0.0502259,0.53497080,78.3480,02/03.0/2021,2000,g 11.0,4.0
# From MPC101097
C/2015 TQ209 (LINEAR),e,11.3034,223.3645,282.1520,578.7504,0.0000708,0.99755300,0.0000,08/25.3316/2016,2000,g 10.5,4.0
# From MPC115881
C/2015 V1 (PANSTARRS),e,139.2239,197.1839,179.6201,2340,0.0000087,0.99817527,0.0000,12/16.8477/2017,2000,g  6.5,4.0
# From MPC112390
C/2015 V2 (Johnson),h,06/11.8793/2017,49.8543,69.9005,165.0007,1.001865,1.644331,2000,5.0,4.0
# From MPC104791
C/2015 V4 (PANSTARRS),e,60.7862,179.9353,306.9738,18.47309,0.0124135,0.70441299,20.1071,02/03.0/2021,2000,g  8.5,4.0
# From MPEC 2021-BE3
C/2015 VL62 (Lemmon-Yeung-PANSTARRS),h,08/27.8782/2017,165.8169,95.1053,128.7999,1.001224,2.718107,2000,8.0,4.0
# From MPC102098
C/2015 WZ (PANSTARRS),e,134.6276,40.1910,66.7503,147.1816,0.0005520,0.99061634,0.0000,04/13.7322/2016,2000,g 15.0,4.0
# From MPC109142
C/2015 W1 (Gibbs),e,87.3620,114.3163,48.1675,2762,0.0000068,0.99918760,0.0000,05/13.6915/2016,2000,g 13.0,4.0
# From MPC101098
P/2015 W2 (Catalina),e,11.6070,294.2514,117.4977,7.295940,0.0500129,0.63389882,97.6403,02/03.0/2021,2000,g 13.0,4.0
# From MPC101098
P/2015 X1 (PANSTARRS),e,12.1515,161.7683,218.9336,3.631943,0.1423953,0.41902143,277.2412,02/03.0/2021,2000,g 16.0,4.0
# From MPEC 2020-AA5
C/2015 XY1 (Lemmon),h,04/27.5802/2018,148.8545,281.6202,196.2218,1.002629,7.923710,2000,5.5,4.0
# From MPC100281
C/2015 X2 (Catalina),e,72.0742,101.0990,42.3264,15.77140,0.0157362,0.87782252,29.4967,02/03.0/2021,2000,g 16.0,4.0
# From MPC 97498
P/2015 X3 (PANSTARRS),e,24.3871,77.3131,306.6554,5.009348,0.0879088,0.43888945,176.3323,02/03.0/2021,2000,g 15.0,4.0
# From MPC119995
C/2015 X5 (PANSTARRS),h,12/29.2674/2017,124.3082,122.3462,27.6480,1.001707,6.796936,2000,7.5,4.0
# From MPC115881
P/2015 X6 (PANSTARRS),e,4.5647,106.9471,329.8653,2.753382,0.2157270,0.17259783,23.4887,02/03.0/2021,2000,g 16.0,4.0
# From MPC109143
C/2015 X7 (ATLAS),e,57.5597,139.9309,348.3752,9474,0.0000011,0.99961147,0.0000,07/29.1186/2016,2000,g  9.0,4.0
# From MPC109143
C/2015 Y1 (LINEAR),e,71.1634,135.8184,24.6560,241.3762,0.0002628,0.98957532,0.0000,05/13.4183/2016,2000,g 12.0,4.0
# From MPC119995
C/2016 A1 (PANSTARRS),h,11/22.4341/2017,121.2052,128.2081,10.2294,1.001169,5.322311,2000,6.0,4.0
# From MPC100282
P/2016 A2 (Christensen),e,26.4060,291.6153,141.4897,4.751424,0.0951631,0.27063807,195.7661,02/03.0/2021,2000,g 11.5,4.0
# From MPC115881
P/2016 A3 (PANSTARRS),e,8.5100,187.2539,341.0109,7.889802,0.0444739,0.38705008,61.1934,02/03.0/2021,2000,g 10.0,4.0
# From MPEC 2021-BE3
C/2016 A6 (PANSTARRS),e,120.9442,300.3737,141.0147,223.7566,0.0002945,0.98927117,0.0000,11/06.6808/2015,2000,g 15.0,4.0
# From MPC102098
P/2016 A7 (PANSTARRS),e,16.6185,221.4896,352.6237,5.032185,0.0873110,0.56509036,157.6703,02/03.0/2021,2000,g 16.0,4.0
# From MPEC 2021-BE3
C/2016 A8 (LINEAR),e,148.2430,111.3419,130.4313,34.32382,0.0049013,0.94493617,7.9345,02/03.0/2021,2000,g 12.0,4.0
# From MPC107048
C/2016 B1 (NEOWISE),e,50.4489,232.0106,8.6860,439.4158,0.0001070,0.99268028,0.0000,12/04.5259/2016,2000,g  9.5,4.0
# From MPC109143
P/2016 BA14 (PANSTARRS),e,18.8936,180.5285,351.8906,3.025180,0.1873170,0.66521597,334.8387,02/03.0/2021,2000,g 21.0,4.0
# From MPC110494
C/2016 C1 (PANSTARRS),h,02/18.1943/2016,56.2358,181.8203,328.7186,1.001722,8.463700,2000,5.5,4.0
# From MPC101098
C/2016 C2 (NEOWISE),e,38.0370,24.4282,214.5807,65.96086,0.0018398,0.97620494,0.0000,04/19.1265/2016,2000,g 16.0,4.0
# From MPC110494
C/2016 E1 (PANSTARRS),h,06/04.4036/2017,131.8862,233.0832,47.4790,1.006281,8.179013,2000,6.5,4.0
# From MPC 99821
C/2016 E2 (Kowalski),e,135.8845,186.9338,321.9629,140.4700,0.0005920,0.99235583,0.0000,02/07.2749/2016,2000,g 20.0,4.0
# From MPC102098
P/2016 G1 (PANSTARRS),e,10.9677,204.0429,111.2224,2.583525,0.2373478,0.21120381,348.7965,02/03.0/2021,2000,g 14.0,4.0
# From MPEC 2017-D91
P/2016 J1-A (PANSTARRS),e,14.3260,199.8141,46.9265,3.173669,0.1743258,0.22807058,293.3258,02/03.0/2021,2000,g 16.5,4.0
# From MPEC 2017-A77
P/2016 J1-B (PANSTARRS),e,14.3288,199.8189,46.8176,3.173299,0.1743563,0.22792143,293.4519,02/03.0/2021,2000,g 17.0,4.0
# From MPC101099
